STARLINK-36038          
1 66804U 25278P   25358.91670139 -.01732055  00000+0 -37132-1 0  9998
2 66804  43.0003 178.9724 0001627 284.6392 186.3247 15.47361784  4915
STARLINK-36049          
1 66805U 25278Q   25358.91670139 -.02042728  00000+0 -39473-1 0  9991
2 66805  43.0002 178.9499 0001629 276.0013 203.4237 15.50296056  4914
STARLINK-36069          
1 66806U 25278R   25358.91670139  .00151083  00000+0  25400-2 0  9999
2 66806  43.0004 178.9559 0002126 270.2581 207.3198 15.50487002  4702
STARLINK-36000          
1 66807U 25278S   25358.91670139 -.00009507  00000+0 -15651-3 0  9993
2 66807  43.0004 178.9415 0001770 274.4828 208.8257 15.50563215  4970
STARLINK-36071          
1 66808U 25278T   25358.91670139  .00000296  00000+0  10880-4 0  9998
2 66808  43.0004 178.9367 0001587 274.3061 210.9224 15.50557853  4914
STARLINK-35979          
1 66809U 25278U   25358.91670139  .00126008  00000+0  21258-2 0  9998
2 66809  43.0005 178.9219 0002098 275.3919 215.6023 15.50491911  4914
STARLINK-36046          
1 66810U 25278V   25358.91670139  .00118901  00000+0  20080-2 0  9995
2 66810  43.0004 178.9326 0001580 274.7993 212.3621 15.50493447  4682
STARLINK-36045          
1 66811U 25278W   25358.91670139  .00114399  00000+0  19332-2 0  9991
2 66811  43.0004 178.9273 0001796 268.3865 220.6927 15.50495098  4911
STARLINK-36054          
1 66812U 25278X   25358.91670139  .00131534  00000+0  22173-2 0  9999
2 66812  43.0004 178.9175 0001650 274.2723 218.6386 15.50490978  4919
STARLINK-36042          
1 66813U 25278Y   25358.91670139  .00139636  00000+0  23513-2 0  9990
2 66813  43.0003 178.9122 0001655 272.9907 221.8402 15.50488099  4911
STARLINK-35984          
1 66814U 25278Z   25358.91670139  .00152325  00000+0  25603-2 0  9993
2 66814  43.0005 178.8831 0001582 276.0125 230.3198 15.50488139  5009
STARLINK-35985          
1 66815U 25278AA  25358.91670139  .00107100  00000+0  18118-2 0  9998
2 66815  43.0005 178.8874 0001591 272.6823 231.7365 15.50497276  5007
STARLINK-36098          
1 66816U 25278AB  25358.91670139  .00117244  00000+0  19806-2 0  9994
2 66816  43.0003 178.9075 0001710 271.7964 224.9519 15.50492824  4759
STARLINK-35995          
1 66817U 25278AC  25358.91670139  .00107374  00000+0  18163-2 0  9993
2 66817  43.0004 178.8973 0001665 273.2144 227.3697 15.50497222  4912
STARLINK-35994          
1 66818U 25278AD  25358.91670139 -.01891372  00000+0 -35442-1 0  9993
2 66818  43.0002 178.9023 0001331 278.9346 219.6650 15.50905521  4913
STARLINK-35989          
1 66819U 25278AE  25358.91670139  .00110219  00000+0  18638-2 0  9994
2 66819  43.0004 178.8926 0001559 268.5556 233.9472 15.50495200  4916
KOMPSAT-7               
1 66820U 25279A   25358.94732138  .00003045  00000+0  24504-3 0  9996
2 66820  97.6459 304.6024 0011239 222.2186 137.8173 15.00672035  3486
STARLINK-35966          
1 66821U 25280A   25358.85134528  .00061592  00000+0  99471-3 0  9994
2 66821  70.0006 165.2423 0003202 272.6205  87.4616 15.52559258  4814
STARLINK-35958          
1 66822U 25280B   25358.85100321  .00070855  00000+0  11406-2 0  9992
2 66822  70.0005 165.2417 0003729 272.1422  87.9338 15.52605658  4819
STARLINK-35957          
1 66823U 25280C   25358.85066684  .00145551  00000+0  23178-2 0  9991
2 66823  70.0004 165.2405 0003279 272.9224  87.1588 15.52611622  4811
STARLINK-35896          
1 66824U 25280D   25358.85032952  .00082133  00000+0  13222-2 0  9998
2 66824  70.0004 165.2388 0003294 269.8029  90.2780 15.52557184  4818
STARLINK-35476          
1 66825U 25280E   25358.84998627  .00069781  00000+0  11258-2 0  9999
2 66825  70.0004 165.2374 0003593 273.6538  86.4238 15.52549304  4814
STARLINK-35898          
1 66826U 25280F   25358.84964565  .00094434  00000+0  15178-2 0  9992
2 66826  70.0004 165.2357 0003148 272.3336  87.7491 15.52551984  4816
STARLINK-35959          
1 66827U 25280G   25358.84930106  .00101948  00000+0  16361-2 0  9991
2 66827  70.0005 165.2343 0003211 273.0883  86.9936 15.52563381  4818
STARLINK-35982          
1 66828U 25280H   25358.84861387  .00075172  00000+0  12113-2 0  9996
2 66828  70.0005 165.2316 0003277 272.9901  87.0911 15.52559322  4815
STARLINK-36084          
1 66829U 25280J   25358.84895942  .00088340  00000+0  14213-2 0  9995
2 66829  70.0005 165.2323 0003190 272.3569  87.7253 15.52548611  4817
STARLINK-35881          
1 66830U 25280K   25358.84827420  .00086631  00000+0  13943-2 0  9993
2 66830  70.0006 165.2297 0003258 269.9431  90.1383 15.52545776  4816
STARLINK-35788          
1 66831U 25280L   25358.84793025  .00090403  00000+0  14538-2 0  9990
2 66831  70.0004 165.2295 0003325 274.0814  85.9993 15.52551582  4811
STARLINK-35768          
1 66832U 25280M   25358.84758745  .00089402  00000+0  14380-2 0  9993
2 66832  70.0005 165.2269 0003326 271.3709  88.7096 15.52550415  4817
STARLINK-35858          
1 66833U 25280N   25358.84724297  .00076551  00000+0  12335-2 0  9998
2 66833  70.0005 165.2264 0003142 271.5197  88.5630 15.52555590  4813
STARLINK-35840          
1 66834U 25280P   25358.84690154  .00101962  00000+0  16366-2 0  9996
2 66834  70.0006 165.2245 0003202 275.9218  84.1604 15.52558542  4816
STARLINK-35890          
1 66835U 25280Q   25358.84655643  .00089905  00000+0  14454-2 0  9999
2 66835  70.0006 165.2230 0003155 268.0148  92.0677 15.52562905  4819
STARLINK-35838          
1 66836U 25280R   25358.84621439  .00104501  00000+0  16765-2 0  9993
2 66836  70.0007 165.2211 0003141 266.3090  93.7738 15.52563002  4817
STARLINK-35729          
1 66837U 25280S   25358.84587034  .00078049  00000+0  12573-2 0  9996
2 66837  70.0008 165.2200 0003220 269.7465  90.3353 15.52556261  4813
STARLINK-35886          
1 66838U 25280T   25358.90960492  .00047078  00000+0  76238-3 0  9994
2 66838  70.0009 165.0403 0003420 272.6194  87.4601 15.52556623  4828
STARLINK-35717          
1 66839U 25280U   25358.84552719  .00107345  00000+0  17211-2 0  9996
2 66839  70.0008 165.2180 0003246 266.7245  93.3570 15.52567347  4814
STARLINK-35837          
1 66840U 25280V   25358.90927210  .00082434  00000+0  13282-2 0  9992
2 66840  70.0007 165.0397 0003435 271.6040  88.4753 15.52531694  4826
STARLINK-35715          
1 66841U 25280W   25358.84450092  .00087006  00000+0  14000-2 0  9994
2 66841  70.0007 165.2147 0003298 265.7081  94.3729 15.52549592  4812
STARLINK-35769          
1 66842U 25280X   25358.90858899  .00101531  00000+0  16299-2 0  9991
2 66842  70.0007 165.0369 0002961 275.1718  84.9131 15.52557160  4828
STARLINK-35997          
1 66843U 25280Y   25358.90789764  .00086247  00000+0  13871-2 0  9995
2 66843  70.0009 165.0335 0003662 271.6353  88.4415 15.52565320  4820
STARLINK-36073          
1 66844U 25280Z   25358.90824505  .00091967  00000+0  14787-2 0  9991
2 66844  70.0008 165.0353 0003337 273.8535  86.2270 15.52551562  4799
STARLINK-36068          
1 66845U 25280AA  25358.84244213  .00053317  00000+0  86286-3 0  9998
2 66845  70.0010 165.2058 0003258 274.5103  85.5712 15.52541980  4817
STARLINK-36055          
1 66846U 25280AB  25358.84312700  .00063008  00000+0  10176-2 0  9998
2 66846  70.0008 165.2085 0003215 277.4111  82.6710 15.52552371  4811
STARLINK-36061          
1 66847U 25280AC  25358.84278159  .00059896  00000+0  96700-3 0  9996
2 66847  70.0009 165.2072 0003364 270.4876  89.5925 15.52575803  4814
STARLINK-36091          
1 66848U 25281A   25358.91670139 -.02055218  00000+0 -32676-1 0  9998
2 66848  43.0005  48.4753 0000974 276.7703 265.1676 15.55651608  3344
STARLINK-36102          
1 66849U 25281B   25358.91670139 -.02052218  00000+0 -32619-1 0  9993
2 66849  43.0007  48.4698 0001193 277.4327 266.4174 15.55652529  3349
STARLINK-36105          
1 66850U 25281C   25358.91670139 -.02057436  00000+0 -32712-1 0  9996
2 66850  43.0004  48.4654 0001248 277.3041 268.4679 15.55652216  3348
STARLINK-36094          
1 66851U 25281D   25358.91670139 -.02055560  00000+0 -32681-1 0  9998
2 66851  43.0002  48.4604 0001164 280.0770 267.6114 15.55651178  3340
STARLINK-35992          
1 66852U 25281E   25358.91670139 -.02048597  00000+0 -32561-1 0  9998
2 66852  43.0002  48.4563 0001132 275.7763 273.8294 15.55648143  3349
STARLINK-35986          
1 66853U 25281F   25358.91670139 -.02053241  00000+0 -32641-1 0  9990
2 66853  43.0004  48.4512 0001043 280.5275 270.9935 15.55651151  3342
STARLINK-36087          
1 66854U 25281G   25358.91670139 -.02047467  00000+0 -32542-1 0  9994
2 66854  43.0001  48.4458 0001112 282.7372 270.7016 15.55647233  3342
STARLINK-36090          
1 66855U 25281H   25358.91670139 -.02046976  00000+0 -32535-1 0  9991
2 66855  43.0004  48.4411 0000975 280.5909 274.7667 15.55647214  3225
STARLINK-36072          
1 66856U 25281J   25358.91670139 -.02054549  00000+0 -32665-1 0  9991
2 66856  43.0006  48.4361 0000929 276.7890 280.4849 15.55651637  3340
STARLINK-36083          
1 66857U 25281K   25358.91670139 -.02052885  00000+0 -32636-1 0  9991
2 66857  43.0007  48.4311 0000991 275.6752 283.5174 15.55650103  3343
STARLINK-35118          
1 66858U 25281L   25358.91670139 -.02047984  00000+0 -32545-1 0  9995
2 66858  43.0007  48.4260 0001269 278.0295 283.0717 15.55650770  3130
STARLINK-35646          
1 66859U 25281M   25358.91670139 -.02058187  00000+0 -32724-1 0  9992
2 66859  43.0009  48.4213 0001156 273.6465 289.3766 15.55654248  3346
STARLINK-35987          
1 66860U 25281N   25358.91670139 -.02047962  00000+0 -32552-1 0  9992
2 66860  43.0003  48.3977 0001114 277.3980 295.2134 15.55646498  3348
STARLINK-35991          
1 66861U 25281P   25358.91670139 -.02047295  00000+0 -32541-1 0  9990
2 66861  43.0007  48.4121 0001140 270.3424 296.5208 15.55645476  3341
STARLINK-35974          
1 66862U 25281Q   25358.91670139 -.02055105  00000+0 -32674-1 0  9997
2 66862  43.0009  48.4167 0000944 277.5220 287.4200 15.55652294  3244
